SL-14 R/B               
1 16792U 86046B   26015.39392714  .00000343  00000+0  36656-4 0  9990
2 16792  82.4835 130.5330 0024168  46.8491 313.4740 14.85527842118496
SL-14 R/B               
1 16882U 86055B   26015.38408896  .00000406  00000+0  44002-4 0  9992
2 16882  82.5206 176.7574 0019762 145.0145 238.4366 14.85571579111458
AJISAI (EGS)            
1 16908U 86061A   26015.62229399 -.00000067  00000+0  21384-3 0  9995
2 16908  50.0079 256.5322 0011298 151.0035 232.1298 12.44514947461399
COSMOS 1812             
1 17295U 87003A   26015.11728332  .00102594  00000+0  45449-3 0  9992
2 17295  82.4839 255.6687 0002819  49.8438 310.3078 15.84097988135926
SL-14 R/B               
1 17567U 87024B   26015.37937357  .00000365  00000+0  38769-4 0  9995
2 17567  82.5300 142.8550 0019708  78.4662 281.8766 14.86067955 80219
COSMOS 1833             
1 17589U 87027A   26015.55570600  .00000298  00000+0  18504-3 0  9995
2 17589  70.9192  77.6952 0024126 285.0802  74.7650 14.13044296  2810
SL-16 R/B               
1 17590U 87027B   26015.47148233 -.00000089  00000+0 -20378-4 0  9994
2 17590  71.0033  28.6371 0006447 223.8020 136.2593 14.17160368  7804
SL-14 R/B               
1 17912U 87038B   26015.41423672  .00000382  00000+0  41536-4 0  9994
2 17912  82.5025 346.9801 0018884 345.6201  14.4475 14.85300997 71329
COSMOS 1844             
1 17973U 87041A   26015.57618883 -.00000271  00000+0 -11569-3 0  9993
2 17973  70.8997 146.2059 0028277 103.1798 257.2481 14.14537647996073
SL-14 R/B               
1 18153U 87055B   26015.46765907  .00000324  00000+0  34498-4 0  9991
2 18153  82.4977  39.1955 0020479 185.2751 174.8253 14.85558766 62036
COSMOS 1867             
1 18187U 87060A   26015.62576379 -.00000059  00000+0  15433-4 0  9999
2 18187  65.0111  95.3092 0013859 274.4219  85.5282 14.31492657 12346
SL-14 R/B               
1 18749U 88001B   26015.59417462  .00000289  00000+0  30536-4 0  9997
2 18749  82.5113 245.3059 0019380  56.5830 303.7237 14.85461630 34142
