CCSDS_OMM_VERS = 2.0
CREATION_DATE  = 
ORIGINATOR     = 

OBJECT_NAME    = SL-14 R/B
OBJECT_ID      = 1986-046B
CENTER_NAME    = EARTH
REF_FRAME      = TEME
TIME_SYSTEM    = UTC
MEAN_ELEMENT_THEORY = SGP/SGP4

EPOCH          = 2026-01-15T09:27:15.304896
MEAN_MOTION    = 14.85527842
ECCENTRICITY   = .00241688
INCLINATION    = 82.4835
RA_OF_ASC_NODE = 130.5330
ARG_OF_PERICENTER = 46.8491
MEAN_ANOMALY   = 313.4740

EPHEMERIS_TYPE = 0
CLASSIFICATION_TYPE = U
NORAD_CAT_ID   = 16792
ELEMENT_SET_NO = 999
REV_AT_EPOCH   = 11849
BSTAR          = .36656347E-4
MEAN_MOTION_DOT = .343E-5
MEAN_MOTION_DDOT = 0

CCSDS_OMM_VERS = 2.0
CREATION_DATE  = 
ORIGINATOR     = 

OBJECT_NAME    = SL-14 R/B
OBJECT_ID      = 1986-055B
CENTER_NAME    = EARTH
REF_FRAME      = TEME
TIME_SYSTEM    = UTC
MEAN_ELEMENT_THEORY = SGP/SGP4

EPOCH          = 2026-01-15T09:13:05.286144
MEAN_MOTION    = 14.85571579
ECCENTRICITY   = .0019762
INCLINATION    = 82.5206
RA_OF_ASC_NODE = 176.7574
ARG_OF_PERICENTER = 145.0145
MEAN_ANOMALY   = 238.4366

EPHEMERIS_TYPE = 0
CLASSIFICATION_TYPE = U
NORAD_CAT_ID   = 16882
ELEMENT_SET_NO = 999
REV_AT_EPOCH   = 11145
BSTAR          = .44001605E-4
MEAN_MOTION_DOT = .406E-5
MEAN_MOTION_DDOT = 0

CCSDS_OMM_VERS = 2.0
CREATION_DATE  = 
ORIGINATOR     = 

OBJECT_NAME    = AJISAI (EGS)
OBJECT_ID      = 1986-061A
CENTER_NAME    = EARTH
REF_FRAME      = TEME
TIME_SYSTEM    = UTC
MEAN_ELEMENT_THEORY = SGP/SGP4

EPOCH          = 2026-01-15T14:56:06.200736
MEAN_MOTION    = 12.44514947
ECCENTRICITY   = .00112983
INCLINATION    = 50.0079
RA_OF_ASC_NODE = 256.5322
ARG_OF_PERICENTER = 151.0035
MEAN_ANOMALY   = 232.1298

EPHEMERIS_TYPE = 0
CLASSIFICATION_TYPE = U
NORAD_CAT_ID   = 16908
ELEMENT_SET_NO = 999
REV_AT_EPOCH   = 46139
BSTAR          = .21383926E-3
MEAN_MOTION_DOT = -.67E-6
MEAN_MOTION_DDOT = 0

CCSDS_OMM_VERS = 2.0
CREATION_DATE  = 
ORIGINATOR     = 

OBJECT_NAME    = COSMOS 1812
OBJECT_ID      = 1987-003A
CENTER_NAME    = EARTH
REF_FRAME      = TEME
TIME_SYSTEM    = UTC
MEAN_ELEMENT_THEORY = SGP/SGP4

EPOCH          = 2026-01-15T02:48:53.278848
MEAN_MOTION    = 15.84097988
ECCENTRICITY   = .00028194
INCLINATION    = 82.4839
RA_OF_ASC_NODE = 255.6687
ARG_OF_PERICENTER = 49.8438
MEAN_ANOMALY   = 310.3078

EPHEMERIS_TYPE = 0
CLASSIFICATION_TYPE = U
NORAD_CAT_ID   = 17295
ELEMENT_SET_NO = 999
REV_AT_EPOCH   = 13592
BSTAR          = .45449415E-3
MEAN_MOTION_DOT = .102594E-2
MEAN_MOTION_DDOT = 0

CCSDS_OMM_VERS = 2.0
CREATION_DATE  = 
ORIGINATOR     = 

OBJECT_NAME    = SL-14 R/B
OBJECT_ID      = 1987-024B
CENTER_NAME    = EARTH
REF_FRAME      = TEME
TIME_SYSTEM    = UTC
MEAN_ELEMENT_THEORY = SGP/SGP4

EPOCH          = 2026-01-15T09:06:17.876448
MEAN_MOTION    = 14.86067955
ECCENTRICITY   = .00197085
INCLINATION    = 82.5300
RA_OF_ASC_NODE = 142.8550
ARG_OF_PERICENTER = 78.4662
MEAN_ANOMALY   = 281.8766

EPHEMERIS_TYPE = 0
CLASSIFICATION_TYPE = U
NORAD_CAT_ID   = 17567
ELEMENT_SET_NO = 999
REV_AT_EPOCH   = 8021
BSTAR          = .38769115E-4
MEAN_MOTION_DOT = .365E-5
MEAN_MOTION_DDOT = 0

CCSDS_OMM_VERS = 2.0
CREATION_DATE  = 
ORIGINATOR     = 

OBJECT_NAME    = COSMOS 1833
OBJECT_ID      = 1987-027A
CENTER_NAME    = EARTH
REF_FRAME      = TEME
TIME_SYSTEM    = UTC
MEAN_ELEMENT_THEORY = SGP/SGP4

EPOCH          = 2026-01-15T13:20:12.998400
MEAN_MOTION    = 14.13044296
ECCENTRICITY   = .00241263
INCLINATION    = 70.9192
RA_OF_ASC_NODE = 77.6952
ARG_OF_PERICENTER = 285.0802
MEAN_ANOMALY   = 74.7650

EPHEMERIS_TYPE = 0
CLASSIFICATION_TYPE = U
NORAD_CAT_ID   = 17589
ELEMENT_SET_NO = 999
REV_AT_EPOCH   = 281
BSTAR          = .18503726E-3
MEAN_MOTION_DOT = .298E-5
MEAN_MOTION_DDOT = 0

CCSDS_OMM_VERS = 2.0
CREATION_DATE  = 
ORIGINATOR     = 

OBJECT_NAME    = SL-16 R/B
OBJECT_ID      = 1987-027B
CENTER_NAME    = EARTH
REF_FRAME      = TEME
TIME_SYSTEM    = UTC
MEAN_ELEMENT_THEORY = SGP/SGP4

EPOCH          = 2026-01-15T11:18:56.073312
MEAN_MOTION    = 14.17160368
ECCENTRICITY   = .00064478
INCLINATION    = 71.0033
RA_OF_ASC_NODE = 28.6371
ARG_OF_PERICENTER = 223.8020
MEAN_ANOMALY   = 136.2593

EPHEMERIS_TYPE = 0
CLASSIFICATION_TYPE = U
NORAD_CAT_ID   = 17590
ELEMENT_SET_NO = 999
REV_AT_EPOCH   = 780
BSTAR          = -.20377781E-4
MEAN_MOTION_DOT = -.89E-6
MEAN_MOTION_DDOT = 0

CCSDS_OMM_VERS = 2.0
CREATION_DATE  = 
ORIGINATOR     = 

OBJECT_NAME    = SL-14 R/B
OBJECT_ID      = 1987-038B
CENTER_NAME    = EARTH
REF_FRAME      = TEME
TIME_SYSTEM    = UTC
MEAN_ELEMENT_THEORY = SGP/SGP4

EPOCH          = 2026-01-15T09:56:30.052608
MEAN_MOTION    = 14.85300997
ECCENTRICITY   = .0018884
INCLINATION    = 82.5025
RA_OF_ASC_NODE = 346.9801
ARG_OF_PERICENTER = 345.6201
MEAN_ANOMALY   = 14.4475

EPHEMERIS_TYPE = 0
CLASSIFICATION_TYPE = U
NORAD_CAT_ID   = 17912
ELEMENT_SET_NO = 999
REV_AT_EPOCH   = 7132
BSTAR          = .41536363E-4
MEAN_MOTION_DOT = .382E-5
MEAN_MOTION_DDOT = 0

CCSDS_OMM_VERS = 2.0
CREATION_DATE  = 
ORIGINATOR     = 

OBJECT_NAME    = COSMOS 1844
OBJECT_ID      = 1987-041A
CENTER_NAME    = EARTH
REF_FRAME      = TEME
TIME_SYSTEM    = UTC
MEAN_ELEMENT_THEORY = SGP/SGP4

EPOCH          = 2026-01-15T13:49:42.714912
MEAN_MOTION    = 14.14537647
ECCENTRICITY   = .00282775
INCLINATION    = 70.8997
RA_OF_ASC_NODE = 146.2059
ARG_OF_PERICENTER = 103.1798
MEAN_ANOMALY   = 257.2481

EPHEMERIS_TYPE = 0
CLASSIFICATION_TYPE = U
NORAD_CAT_ID   = 17973
ELEMENT_SET_NO = 999
REV_AT_EPOCH   = 99607
BSTAR          = -.11569278E-3
MEAN_MOTION_DOT = -.271E-5
MEAN_MOTION_DDOT = 0

CCSDS_OMM_VERS = 2.0
CREATION_DATE  = 
ORIGINATOR     = 

OBJECT_NAME    = SL-14 R/B
OBJECT_ID      = 1987-055B
CENTER_NAME    = EARTH
REF_FRAME      = TEME
TIME_SYSTEM    = UTC
MEAN_ELEMENT_THEORY = SGP/SGP4

EPOCH          = 2026-01-15T11:13:25.743648
MEAN_MOTION    = 14.85558766
ECCENTRICITY   = .00204796
INCLINATION    = 82.4977
RA_OF_ASC_NODE = 39.1955
ARG_OF_PERICENTER = 185.2751
MEAN_ANOMALY   = 174.8253

EPHEMERIS_TYPE = 0
CLASSIFICATION_TYPE = U
NORAD_CAT_ID   = 18153
ELEMENT_SET_NO = 999
REV_AT_EPOCH   = 6203
BSTAR          = .3449847E-4
MEAN_MOTION_DOT = .324E-5
MEAN_MOTION_DDOT = 0

CCSDS_OMM_VERS = 2.0
CREATION_DATE  = 
ORIGINATOR     = 

OBJECT_NAME    = COSMOS 1867
OBJECT_ID      = 1987-060A
CENTER_NAME    = EARTH
REF_FRAME      = TEME
TIME_SYSTEM    = UTC
MEAN_ELEMENT_THEORY = SGP/SGP4

EPOCH          = 2026-01-15T15:01:05.991456
MEAN_MOTION    = 14.31492657
ECCENTRICITY   = .0013859
INCLINATION    = 65.0111
RA_OF_ASC_NODE = 95.3092
ARG_OF_PERICENTER = 274.4219
MEAN_ANOMALY   = 85.5282

EPHEMERIS_TYPE = 0
CLASSIFICATION_TYPE = U
NORAD_CAT_ID   = 18187
ELEMENT_SET_NO = 999
REV_AT_EPOCH   = 1234
BSTAR          = .15432976E-4
MEAN_MOTION_DOT = -.59E-6
MEAN_MOTION_DDOT = 0

CCSDS_OMM_VERS = 2.0
CREATION_DATE  = 
ORIGINATOR     = 

OBJECT_NAME    = SL-14 R/B
OBJECT_ID      = 1988-001B
CENTER_NAME    = EARTH
REF_FRAME      = TEME
TIME_SYSTEM    = UTC
MEAN_ELEMENT_THEORY = SGP/SGP4

EPOCH          = 2026-01-15T14:15:36.687168
MEAN_MOTION    = 14.85461630
ECCENTRICITY   = .00193804
INCLINATION    = 82.5113
RA_OF_ASC_NODE = 245.3059
ARG_OF_PERICENTER = 56.5830
MEAN_ANOMALY   = 303.7237

EPHEMERIS_TYPE = 0
CLASSIFICATION_TYPE = U
NORAD_CAT_ID   = 18749
ELEMENT_SET_NO = 999
REV_AT_EPOCH   = 3414
BSTAR          = .30535961E-4
MEAN_MOTION_DOT = .289E-5
MEAN_MOTION_DDOT = 0

